1 27424U 02022A   10013.46636587  .00000053  00000-0  21838-4 0  5344
2 27424 098.2024 317.2664 0000882 111.3837 248.7453 14.57114962409384